start=new Date('2022-08-28T00:00:00.000Z').valueOf();
sats=[{"MEAN_MOTION":"15.08830462","ECCENTRICITY":"0.00016610","RA_OF_ASC_NODE":"59.1229","APOAPSIS":"540.924","MEAN_MOTION_DOT":"0.00040729","DECAY_DATE":null,"CLASSIFICATION_TYPE":"U","GP_ID":"211137681","OBJECT_TYPE":"PAYLOAD","RCS_SIZE":"LARGE","MEAN_ELEMENT_THEORY":"SGP4","SITE":"AFETR","TIME_SYSTEM":"UTC","SEMIMAJOR_AXIS":"6917.910","NORAD_CAT_ID":"51970","FILE":"3548882","EPHEMERIS_TYPE":"0","REV_AT_EPOCH":"130","LAUNCH_DATE":"2022-03-09","ELEMENT_SET_NO":"999","TLE_LINE2":"2 51970  53.2174  59.1229 0001661  60.1924 210.7712 15.08830462  1301","EPOCH":"2022-08-27T22:00:00.999936","OBJECT_NAME":"STARLINK-3677","TLE_LINE1":"1 51970U 22025Q   22239.91667824  .00040729  00000-0  25631-2 0  9995","BSTAR":"0.00256310000000","CENTER_NAME":"EARTH","MEAN_ANOMALY":"210.7712","PERIAPSIS":"538.625","INCLINATION":"53.2174","REF_FRAME":"TEME","MEAN_MOTION_DDOT":"0.0000000000000","COUNTRY_CODE":"US","ARG_OF_PERICENTER":"60.1924","PERIOD":"95.438","OBJECT_ID":"2022-025Q"},{"OBJECT_NAME":"STARLINK-3669","TLE_LINE1":"1 51971U 22025R   22239.91667824  .00042311  00000-0  26621-2 0  9995","BSTAR":"0.00266210000000","CENTER_NAME":"EARTH","MEAN_ANOMALY":"126.0886","PERIAPSIS":"538.640","INCLINATION":"53.2170","REF_FRAME":"TEME","MEAN_MOTION_DDOT":"0.0000000000000","COUNTRY_CODE":"US","ARG_OF_PERICENTER":"64.8177","PERIOD":"95.439","OBJECT_ID":"2022-025R","MEAN_MOTION":"15.08820060","ECCENTRICITY":"0.00016860","RA_OF_ASC_NODE":"59.1246","MEAN_MOTION_DOT":"0.00042311","APOAPSIS":"540.973","DECAY_DATE":null,"GP_ID":"211136467","CLASSIFICATION_TYPE":"U","RCS_SIZE":"MEDIUM","OBJECT_TYPE":"PAYLOAD","MEAN_ELEMENT_THEORY":"SGP4","SEMIMAJOR_AXIS":"6917.941","SITE":"AFETR","TIME_SYSTEM":"UTC","NORAD_CAT_ID":"51971","REV_AT_EPOCH":"130","FILE":"3548882","EPHEMERIS_TYPE":"0","LAUNCH_DATE":"2022-03-09","ELEMENT_SET_NO":"999","TLE_LINE2":"2 51971  53.2170  59.1246 0001686  64.8177 126.0886 15.08820060  1309","EPOCH":"2022-08-27T22:00:00.999936"},{"GP_ID":"211137218","CLASSIFICATION_TYPE":"U","RCS_SIZE":"LARGE","OBJECT_TYPE":"PAYLOAD","APOAPSIS":"540.945","MEAN_MOTION_DOT":"0.00040665","DECAY_DATE":null,"ECCENTRICITY":"0.00016880","RA_OF_ASC_NODE":"59.1287","MEAN_MOTION":"15.08829432","TLE_LINE2":"2 51972  53.2184  59.1287 0001688  59.6202 231.3037 15.08829432  1303","EPOCH":"2022-08-27T22:00:00.999936","NORAD_CAT_ID":"51972","EPHEMERIS_TYPE":"0","FILE":"3548882","REV_AT_EPOCH":"130","LAUNCH_DATE":"2022-03-09","ELEMENT_SET_NO":"999","MEAN_ELEMENT_THEORY":"SGP4","SITE":"AFETR","SEMIMAJOR_AXIS":"6917.913","TIME_SYSTEM":"UTC","CENTER_NAME":"EARTH","BSTAR":"0.00255920000000","OBJECT_NAME":"STARLINK-3671","TLE_LINE1":"1 51972U 22025S   22239.91667824  .00040665  00000-0  25592-2 0  9992","COUNTRY_CODE":"US","MEAN_MOTION_DDOT":"0.0000000000000","PERIOD":"95.438","OBJECT_ID":"2022-025S","ARG_OF_PERICENTER":"59.6202","INCLINATION":"53.2184","REF_FRAME":"TEME","MEAN_ANOMALY":"231.3037","PERIAPSIS":"538.610"},{"OBJECT_TYPE":"PAYLOAD","RCS_SIZE":"LARGE","GP_ID":"211137955","CLASSIFICATION_TYPE":"U","DECAY_DATE":null,"APOAPSIS":"541.005","MEAN_MOTION_DOT":"0.00040948","RA_OF_ASC_NODE":"59.1238","ECCENTRICITY":"0.00017470","MEAN_MOTION":"15.08823183","EPOCH":"2022-08-27T22:00:00.999936","TLE_LINE2":"2 51973  53.2166  59.1238 0001747  65.1511 185.8346 15.08823183  1304","ELEMENT_SET_NO":"999","LAUNCH_DATE":"2022-03-09","EPHEMERIS_TYPE":"0","FILE":"3548882","REV_AT_EPOCH":"130","NORAD_CAT_ID":"51973","SEMIMAJOR_AXIS":"6917.932","SITE":"AFETR","TIME_SYSTEM":"UTC","MEAN_ELEMENT_THEORY":"SGP4","CENTER_NAME":"EARTH","BSTAR":"0.00257720000000","TLE_LINE1":"1 51973U 22025T   22239.91667824  .00040948  00000-0  25772-2 0  9997","OBJECT_NAME":"STARLINK-3679","OBJECT_ID":"2022-025T","PERIOD":"95.439","ARG_OF_PERICENTER":"65.1511","MEAN_MOTION_DDOT":"0.0000000000000","COUNTRY_CODE":"US","REF_FRAME":"TEME","INCLINATION":"53.2166","PERIAPSIS":"538.588","MEAN_ANOMALY":"185.8346"},{"FILE":"3548882","REV_AT_EPOCH":"130","EPHEMERIS_TYPE":"0","NORAD_CAT_ID":"51974","ELEMENT_SET_NO":"999","LAUNCH_DATE":"2022-03-09","MEAN_ELEMENT_THEORY":"SGP4","SEMIMAJOR_AXIS":"6917.934","SITE":"AFETR","TIME_SYSTEM":"UTC","EPOCH":"2022-08-27T22:00:00.999936","TLE_LINE2":"2 51974  53.2164  59.1285 0001785  55.5533 255.4254 15.08822613  1303","ECCENTRICITY":"0.00017850","RA_OF_ASC_NODE":"59.1285","MEAN_MOTION":"15.08822613","CLASSIFICATION_TYPE":"U","GP_ID":"211138175","RCS_SIZE":"LARGE","OBJECT_TYPE":"PAYLOAD","APOAPSIS":"541.033","MEAN_MOTION_DOT":"0.00038343","DECAY_DATE":null,"INCLINATION":"53.2164","REF_FRAME":"TEME","PERIAPSIS":"538.564","MEAN_ANOMALY":"255.4254","MEAN_MOTION_DDOT":"0.0000000000000","COUNTRY_CODE":"US","ARG_OF_PERICENTER":"55.5533","PERIOD":"95.439","OBJECT_ID":"2022-025U","BSTAR":"0.00241530000000","TLE_LINE1":"1 51974U 22025U   22239.91667824  .00038343  00000-0  24153-2 0  9996","OBJECT_NAME":"STARLINK-3672","CENTER_NAME":"EARTH"},{"EPOCH":"2022-08-27T22:00:00.999936","TLE_LINE2":"2 51975  53.2189  59.1311 0001696  56.7706 248.9539 15.08828478  1305","SITE":"AFETR","TIME_SYSTEM":"UTC","SEMIMAJOR_AXIS":"6917.916","MEAN_ELEMENT_THEORY":"SGP4","ELEMENT_SET_NO":"999","LAUNCH_DATE":"2022-03-09","FILE":"3548882","REV_AT_EPOCH":"130","EPHEMERIS_TYPE":"0","NORAD_CAT_ID":"51975","DECAY_DATE":null,"APOAPSIS":"540.954","MEAN_MOTION_DOT":"0.00040943","OBJECT_TYPE":"PAYLOAD","RCS_SIZE":"LARGE","GP_ID":"211136961","CLASSIFICATION_TYPE":"U","MEAN_MOTION":"15.08828478","RA_OF_ASC_NODE":"59.1311","ECCENTRICITY":"0.00016960","ARG_OF_PERICENTER":"56.7706","PERIOD":"95.438","OBJECT_ID":"2022-025V","COUNTRY_CODE":"US","MEAN_MOTION_DDOT":"0.0000000000000","MEAN_ANOMALY":"248.9539","PERIAPSIS":"538.607","REF_FRAME":"TEME","INCLINATION":"53.2189","CENTER_NAME":"EARTH","TLE_LINE1":"1 51975U 22025V   22239.91667824  .00040943  00000-0  25765-2 0  9996","OBJECT_NAME":"STARLINK-3674","BSTAR":"0.00257650000000"},{"MEAN_MOTION":"15.08839872","ECCENTRICITY":"0.00017930","RA_OF_ASC_NODE":"69.1458","APOAPSIS":"540.986","MEAN_MOTION_DOT":"-0.00008952","DECAY_DATE":null,"GP_ID":"211137712","CLASSIFICATION_TYPE":"U","OBJECT_TYPE":"PAYLOAD","RCS_SIZE":"LARGE","MEAN_ELEMENT_THEORY":"SGP4","TIME_SYSTEM":"UTC","SITE":"AFETR","SEMIMAJOR_AXIS":"6917.881","FILE":"3548882","REV_AT_EPOCH":"130","EPHEMERIS_TYPE":"0","NORAD_CAT_ID":"51976","ELEMENT_SET_NO":"999","LAUNCH_DATE":"2022-03-09","EPOCH":"2022-08-27T22:00:00.999936","TLE_LINE2":"2 51976  53.2172  69.1458 0001793  62.9331 253.0685 15.08839872  1301","TLE_LINE1":"1 51976U 22025W   22239.91667824 -.00008952  00000-0 -54501-3 0  9994","OBJECT_NAME":"STARLINK-3663","BSTAR":"-0.00054501000000","CENTER_NAME":"EARTH","PERIAPSIS":"538.505","MEAN_ANOMALY":"253.0685","INCLINATION":"53.2172","REF_FRAME":"TEME","MEAN_MOTION_DDOT":"0.0000000000000","COUNTRY_CODE":"US","PERIOD":"95.438","OBJECT_ID":"2022-025W","ARG_OF_PERICENTER":"62.9331"},{"BSTAR":"0.00280210000000","OBJECT_NAME":"STARLINK-3660","TLE_LINE1":"1 51977U 22025X   22239.91667824  .00044565  00000-0  28021-2 0  9990","CENTER_NAME":"EARTH","INCLINATION":"53.2162","REF_FRAME":"TEME","MEAN_ANOMALY":"256.6769","PERIAPSIS":"538.757","MEAN_MOTION_DDOT":"0.0000000000000","COUNTRY_CODE":"US","OBJECT_ID":"2022-025X","PERIOD":"95.439","ARG_OF_PERICENTER":"69.2281","ECCENTRICITY":"0.00015190","RA_OF_ASC_NODE":"49.1456","MEAN_MOTION":"15.08819524","CLASSIFICATION_TYPE":"U","GP_ID":"211137462","RCS_SIZE":"LARGE","OBJECT_TYPE":"PAYLOAD","APOAPSIS":"540.859","MEAN_MOTION_DOT":"0.00044565","DECAY_DATE":null,"NORAD_CAT_ID":"51977","FILE":"3548882","EPHEMERIS_TYPE":"0","REV_AT_EPOCH":"130","LAUNCH_DATE":"2022-03-09","ELEMENT_SET_NO":"999","MEAN_ELEMENT_THEORY":"SGP4","SITE":"AFETR","SEMIMAJOR_AXIS":"6917.943","TIME_SYSTEM":"UTC","TLE_LINE2":"2 51977  53.2162  49.1456 0001519  69.2281 256.6769 15.08819524  1301","EPOCH":"2022-08-27T22:00:00.999936"},{"ARG_OF_PERICENTER":"66.6219","PERIOD":"95.439","OBJECT_ID":"2022-025Y","COUNTRY_CODE":"US","MEAN_MOTION_DDOT":"0.0000000000000","REF_FRAME":"TEME","INCLINATION":"53.2156","PERIAPSIS":"538.733","MEAN_ANOMALY":"309.3627","CENTER_NAME":"EARTH","BSTAR":"0.00187960000000","OBJECT_NAME":"STARLINK-3666","TLE_LINE1":"1 51978U 22025Y   22239.91667824  .00029740  00000-0  18796-2 0  9997","TLE_LINE2":"2 51978  53.2156  69.1287 0001531  66.6219 309.3627 15.08824625  1302","EPOCH":"2022-08-27T22:00:00.999936","LAUNCH_DATE":"2022-03-09","ELEMENT_SET_NO":"999","NORAD_CAT_ID":"51978","FILE":"3548882","EPHEMERIS_TYPE":"0","REV_AT_EPOCH":"130","SITE":"AFETR","SEMIMAJOR_AXIS":"6917.927","TIME_SYSTEM":"UTC","MEAN_ELEMENT_THEORY":"SGP4","OBJECT_TYPE":"PAYLOAD","RCS_SIZE":"LARGE","CLASSIFICATION_TYPE":"U","GP_ID":"211137682","DECAY_DATE":null,"MEAN_MOTION_DOT":"0.00029740","APOAPSIS":"540.852","RA_OF_ASC_NODE":"69.1287","ECCENTRICITY":"0.00015310","MEAN_MOTION":"15.08824625"},{"OBJECT_NAME":"STARLINK-3656","TLE_LINE1":"1 51979U 22025Z   22239.91667824  .00035216  00000-0  22210-2 0  9999","BSTAR":"0.00222100000000","CENTER_NAME":"EARTH","PERIAPSIS":"538.553","MEAN_ANOMALY":"223.9970","REF_FRAME":"TEME","INCLINATION":"53.2173","ARG_OF_PERICENTER":"71.8792","PERIOD":"95.439","OBJECT_ID":"2022-025Z","COUNTRY_CODE":"US","MEAN_MOTION_DDOT":"0.0000000000000","MEAN_MOTION":"15.08819408","RA_OF_ASC_NODE":"69.1461","ECCENTRICITY":"0.00018140","DECAY_DATE":null,"APOAPSIS":"541.063","MEAN_MOTION_DOT":"0.00035216","OBJECT_TYPE":"PAYLOAD","RCS_SIZE":"LARGE","CLASSIFICATION_TYPE":"U","GP_ID":"211136468","SEMIMAJOR_AXIS":"6917.943","SITE":"AFETR","TIME_SYSTEM":"UTC","MEAN_ELEMENT_THEORY":"SGP4","LAUNCH_DATE":"2022-03-09","ELEMENT_SET_NO":"999","NORAD_CAT_ID":"51979","REV_AT_EPOCH":"130","FILE":"3548882","EPHEMERIS_TYPE":"0","TLE_LINE2":"2 51979  53.2173  69.1461 0001814  71.8792 223.9970 15.08819408  1309","EPOCH":"2022-08-27T22:00:00.999936"}];
